satname,norad_id,inclination_deg,eccentricity,mean_motion_rev_per_day,perigee_km,apogee_km,l1,l2
STARLINK-1404,45686,53.1552,0.0003474,15.40992915,440.80787987255917,445.5473292598126,1 45686U 20035AF  26125.28889520  .00089912  00000+0  21324-2 0  9999,2 45686  53.1552 144.2854 0003474  97.7260 262.4140 15.40992915327678
STARLINK-1413,45689,53.1586,0.0003278,15.32259753,466.82739356498496,471.3164237254932,1 45689U 20035AJ  26125.37773789  .00042685  00000+0  13554-2 0  9993,2 45689  53.1586 146.0750 0003278  48.0466 312.0814 15.32259753327578
STARLINK-1417,45693,53.0506,0.0005891,15.15273407,516.0848645135211,524.2124246599742,1 45693U 20035AN  26125.37054964  .00030252  00000+0  15977-2 0  9993,2 45693  53.0506 156.8464 0005891  36.2749 323.8643 15.15273407327484
STARLINK-1420,45695,53.0457,0.0006964,15.64859024,368.9422943372847,378.34617524110035,1 45695U 20035AQ  26125.97138394  .00048726  00000+0  49185-3 0  9995,2 45695  53.0457 103.6090 0006964  33.2418 326.9032 15.64859024328293
STARLINK-1422,45696,53.1565,0.0003397,15.32432578,466.23126635277913,470.8829103163953,1 45696U 20035AR  26125.44722961  .00047351  00000+0  14933-2 0  9992,2 45696  53.1565 145.7175 0003397  43.0452 317.0815 15.32432578327666
STARLINK-1351,45697,53.0448,0.0007363,15.62164338,376.4293640560536,386.38346769026793,1 45697U 20035AS  26124.93262068  .00112395  00000+0  12433-2 0  9997,2 45697  53.0448 108.7077 0007363  32.4667 327.6798 15.62164338328132
STARLINK-1400,45700,53.0441,0.0006165,15.60081063,383.2517406315701,391.5936757517711,1 45700U 20035AV  26125.92788113  .00050595  00000+0  61466-3 0  9990,2 45700  53.0441 105.9225 0006165   3.9724 356.1336 15.60081063328259
STARLINK-1403,45701,53.1543,0.000292,15.31331712,469.8378698938741,473.8382553304382,1 45701U 20035AW  26125.43765939  .00055866  00000+0  18192-2 0  9991,2 45701  53.1543 133.0654 0002920  53.4420 306.6850 15.31331712327831
STARLINK-1407,45703,53.0294,0.0002232,15.69274366,359.46948705502746,362.4778260521134,1 45703U 20035AY  26125.46480355  .00065354  00000+0  54975-3 0  9995,2 45703  53.0294  36.9545 0002232 340.2030  19.8899 15.69274366329183
STARLINK-1411,45706,53.036,0.0003704,15.77016338,336.4115813709159,341.38756206324433,1 45706U 20035BB  26126.00002315  .00104634  00000+0  62717-3 0  9993,2 45706  53.0360  58.4778 0003704  90.0379 131.4066 15.77016338  5830
STARLINK-1423,45710,53.0432,0.0007754,15.65791082,365.73132371682823,376.1978304425638,1 45710U 20035BF  26125.95780193  .00050358  00000+0  48940-3 0  9993,2 45710  53.0432 103.3472 0007754   7.0616 353.0507 15.65791082328289
STARLINK-1433,45711,53.0438,0.0007641,15.65384791,366.97445202791187,377.2902136223356,1 45711U 20035BG  26125.93442264  .00048784  00000+0  48214-3 0  9990,2 45711  53.0438 101.9610 0007641  13.4120 346.7096 15.65384791328300
STARLINK-1434,45712,53.0509,0.0003898,15.31814163,467.73014279254494,473.06926200573434,1 45712U 20035BH  26125.94481911  .00037777  00000+0  12183-2 0  9999,2 45712  53.0509 113.7537 0003898  10.0084 350.0993 15.31814163328152
STARLINK-1465,45731,53.0467,0.0002533,15.59230875,388.1674767701343,391.5961551022874,1 45731U 20038B   26125.92631651  .00078785  00000+0  98218-3 0  9997,2 45731  53.0467 306.6073 0002533 166.6268 193.4811 15.59230875325282
STARLINK-1471,45735,53.0449,0.0002437,15.51999658,409.2338154005329,412.5427863321738,1 45735U 20038F   26125.75733450  .00029701  00000+0  49097-3 0  9997,2 45735  53.0449 227.9639 0002437  49.0948 311.0272 15.51999658326385
STARLINK-1480,45741,53.0496,0.0003437,15.60631979,383.50563986651014,388.1551910679018,1 45741U 20038M   26125.78810703  .00078707  00000+0  93014-3 0  9992,2 45741  53.0496 301.0308 0003437 245.1701 114.8954 15.60631979325360
STARLINK-1500,45744,53.0366,0.000286,15.37773197,450.7421010861344,454.64933740154265,1 45744U 20038Q   26125.72931561  .00029306  00000+0  78552-3 0  9996,2 45744  53.0366 284.5581 0002860  90.7633 269.3698 15.37773197325582
STARLINK-1504,45746,53.021,0.0002309,15.57037717,394.6714958454231,397.7999011575921,1 45746U 20038S   26125.56221408  .00037816  00000+0  51801-3 0  9995,2 45746  53.0210 226.9938 0002309  18.2211 341.8882 15.57037717326364
STARLINK-1506,45747,53.0776,0.0004026,15.27813636,479.58756305608676,485.1116268623482,1 45747U 20038T   26125.86477365  .00008415  00000+0  31808-3 0  9992,2 45747  53.0776 297.5726 0004026  82.4823 277.6633 15.27813636325426
STARLINK-1464,45751,53.0485,0.000105,15.5129891,412.21956316507385,413.6456877864239,1 45751U 20038X   26125.72600488  .00079969  00000+0  13338-2 0  9995,2 45751  53.0485 291.9856 0001050 232.7354 127.3559 15.51298910325486
STARLINK-1477,45754,53.0506,0.000225,15.17305191,512.4383308459765,515.5397875726203,1 45754U 20038AA  26125.79655614  .00025103  00000+0  12554-2 0  9996,2 45754  53.0506 312.8020 0002250 145.2590 214.8551 15.17305191325196
STARLINK-1478,45755,53.047,0.0001302,15.64991934,372.3829250852077,374.1409893736709,1 45755U 20038AB  26125.71226423  .00054843  00000+0  55015-3 0  9994,2 45755  53.0470 280.0828 0001302 304.1759  55.9131 15.64991934325634
STARLINK-1493,45759,53.0492,0.0004469,15.59950112,384.7776311846501,390.82502686313273,1 45759U 20038AF  26125.90539256  .00085586  00000+0  10365-2 0  9996,2 45759  53.0492 287.8421 0004469 249.1416 110.9118 15.59950112325545
STARLINK-1494,45760,53.0421,0.0005412,15.89812519,299.19232095741336,306.42377587782084,1 45760U 20038AG  26126.00002315  .00206288  26533-4  68916-3 0  9995,2 45760  53.0421 223.6420 0005412 325.9715 241.4715 15.89812519  5752
STARLINK-1502,45764,53.0475,0.0005756,15.56390895,394.2120713953891,402.01288979745095,1 45764U 20038AL  26125.75257890  .00086290  00000+0  11941-2 0  9990,2 45764  53.0475 291.5256 0005756 220.2612 139.7973 15.56390895325493
STARLINK-1470,45772,53.0437,0.0001953,15.32916219,465.78002885352635,468.45378502957647,1 45772U 20038AU  26125.68288052  .00046162  00000+0  14344-2 0  9999,2 45772  53.0437 268.7743 0001953 250.3071 109.7719 15.32916219325803
STARLINK-1482,45773,53.158,0.0002406,15.35093964,458.9959999354869,462.2868201063893,1 45773U 20038AV  26125.74445648  .00044255  00000+0  12846-2 0  9999,2 45773  53.1580 285.0621 0002406 244.0697 116.0058 15.35093964325598
STARLINK-1496,45780,53.0479,0.000491,15.58063682,389.936723542246,396.5862368497992,1 45780U 20038BC  26125.65582504  .00091160  00000+0  11843-2 0  9993,2 45780  53.0479 263.1833 0004910 331.5735  28.5007 15.58063682325861
STARLINK-1513,45786,53.1594,0.0001212,15.31698824,469.9134165059968,471.5735851393956,1 45786U 20038BJ  26125.75532735  .00001084  00000+0  46688-4 0  9994,2 45786  53.1594 285.8670 0001212  99.9674 260.1464 15.31698824325588
STARLINK-1522,46027,53.0633,0.0001712,15.1184422,529.3931279495491,531.7586712463717,1 46027U 20055A   26125.58767378  .00037901  00000+0  21972-2 0  9990,2 46027  53.0633 229.5166 0001712 304.7785  55.3045 15.11844220317480
STARLINK-1523,46028,53.1618,0.0001267,15.30199094,474.34945452341253,476.0860946232906,1 46028U 20055B   26125.67268394  .00003169  00000+0  11908-3 0  9993,2 46028  53.1618 222.0245 0001267  75.3450 284.7692 15.30199094317621
STARLINK-1526,46029,53.1606,0.0001458,15.30193601,474.2349542290558,476.2333972639035,1 46029U 20055C   26125.53573575  .00003393  00000+0  12666-3 0  9990,2 46029  53.1606 222.6697 0001458  77.6646 282.4518 15.30193601317596
STARLINK-1555,46032,53.1596,0.0001556,15.30195202,474.1630116087845,476.2957792310399,1 46032U 20055F   26125.65056456  .00002227  00000+0  87303-4 0  9997,2 46032  53.1596 222.1179 0001556  74.5112 285.6060 15.30195202317610
STARLINK-1556,46033,53.1584,0.0001096,15.30194621,474.48000104373114,475.98225933786944,1 46033U 20055G   26125.56839532  .00003919  00000+0  14438-3 0  9999,2 46033  53.1584 222.5147 0001096  71.4151 288.6969 15.30194621317575
STARLINK-1557,46034,53.1574,0.0001308,15.30198753,474.3223738013903,476.11521167677074,1 46034U 20055H   26125.63687009  .00001268  00000+0  54937-4 0  9992,2 46034  53.1574 222.1942 0001308  97.7326 262.3823 15.30198753317584
STARLINK-1558,46035,53.1595,0.0001517,15.30203876,474.1638446531015,476.2431481597105,1 46035U 20055J   26125.64424978  .00008773  00000+0  30795-3 0  9991,2 46035  53.1595 222.1613 0001517  80.2156 279.9016 15.30203876317618
STARLINK-1560,46036,53.1581,0.0001174,15.302005,474.408993152173,476.0181598675372,1 46036U 20055K   26125.56523781  .00004901  00000+0  17750-3 0  9990,2 46036  53.1581 222.5322 0001174  54.3254 305.7855 15.30200500317604
STARLINK-1567,46038,53.076,0.0004703,16.13610309,233.8466558221271,240.06881392975083,1 46038U 20055M   26125.66365126  .01688540  23651-2  14197-2 0  9999,2 46038  53.0760 205.2166 0004703 355.0026   5.0962 16.13610309317835
STARLINK-1569,46039,53.1619,0.000195,15.30186564,473.91877571051464,476.5915986635164,1 46039U 20055N   26125.64740926  .00004297  00000+0  15718-3 0  9994,2 46039  53.1619 222.1328 0001950  91.8051 268.3174 15.30186564317605
STARLINK-1582,46043,53.1583,0.0001245,15.31706804,469.8670302700202,471.57239559154004,1 46043U 20055S   26125.69735254  .00004768  00000+0  16527-3 0  9994,2 46043  53.1583 221.6665 0001245  90.7151 269.3993 15.31706804317611
STARLINK-1591,46045,53.1569,0.0001121,15.30193812,474.465282896017,476.00180857236955,1 46045U 20055U   26125.54943055  .00003027  00000+0  11430-3 0  9995,2 46045  53.1569 222.5948 0001121  81.2164 278.8963 15.30193812317578
STARLINK-1524,46047,53.16,0.0001311,15.31709745,469.8130620760239,471.6088300074762,1 46047U 20055W   26125.60142445 -.00000565  00000+0 -64492-5 0  9992,2 46047  53.1600 209.4092 0001311  66.7572 293.3568 15.31709745317787
STARLINK-1527,46048,53.1578,0.000122,15.31714173,469.8621887368454,471.5333044150093,1 46048U 20055X   26125.53152058  .00013461  00000+0  44457-3 0  9990,2 46048  53.1578 209.7125 0001220  67.9567 292.1563 15.31714173317747
